{
  "type": "FeatureCollection",
  "features": [
    {
      "type": "Feature",
      "properties": {
        "norad_id": 48859,
        "name": "GPS BIII-5  (PRN 11)",
        "group": "gnss",
        "lat": 49.80527286841802,
        "lon": 104.83703399061991,
        "alt_km": 20211.77063353256,
        "timestamp": "2025-12-10T04:57:29.861892+00:00",
        "meta_object_name": "GPS BIII-5  (PRN 11)",
        "meta_object_id": "2021-054A",
        "meta_epoch": "2025-12-08T04:14:32.423424",
        "meta_mean_motion": 2.00553627,
        "meta_eccentricity": 0.0024678,
        "meta_inclination": 55.2581,
        "meta_ra_of_asc_node": 340.1367,
        "meta_arg_of_pericenter": 233.3994,
        "meta_mean_anomaly": 212.8593,
        "meta_ephemeris_type": 0,
        "meta_classification_type": "U",
        "meta_norad_cat_id": 48859,
        "meta_element_set_no": 999,
        "meta_rev_at_epoch": 3292,
        "meta_bstar": 0,
        "meta_mean_motion_dot": -8.6e-07,
        "meta_mean_motion_ddot": 0,
        "tle_line1": "1 48859U 21054A   25342.17676416 -.00000086  00000+0  00000+0 0  9993",
        "tle_line2": "2 48859  55.2581 340.1367 0024678 233.3994 212.8593  2.00553627 32922"
      },
      "geometry": {
        "type": "Point",
        "coordinates": [
          104.83703399061991,
          49.80527286841802
        ]
      }
    },
    {
      "type": "Feature",
      "properties": {
        "norad_id": 49336,
        "name": "QZS-1R (QZSS/PRN 196)",
        "group": "gnss",
        "lat": -10.766785043172451,
        "lon": -83.05563522456583,
        "alt_km": 34662.23828134186,
        "timestamp": "2025-12-10T04:57:29.861905+00:00",
        "meta_object_name": "QZS-1R (QZSS/PRN 196)",
        "meta_object_id": "2021-096A",
        "meta_epoch": "2025-12-08T14:42:38.556864",
        "meta_mean_motion": 1.00258569,
        "meta_eccentricity": 0.07543626,
        "meta_inclination": 37.0693,
        "meta_ra_of_asc_node": 82.4203,
        "meta_arg_of_pericenter": 271.2519,
        "meta_mean_anomaly": 79.6136,
        "meta_ephemeris_type": 0,
        "meta_classification_type": "U",
        "meta_norad_cat_id": 49336,
        "meta_element_set_no": 999,
        "meta_rev_at_epoch": 1509,
        "meta_bstar": 0,
        "meta_mean_motion_dot": -2.65e-06,
        "meta_mean_motion_ddot": 0,
        "tle_line1": "1 49336U 21096A   25342.61294626 -.00000265  00000+0  00000+0 0  9997",
        "tle_line2": "2 49336  37.0693  82.4203 0754362 271.2519  79.6136  1.00258569 15091"
      },
      "geometry": {
        "type": "Point",
        "coordinates": [
          -83.05563522456583,
          -10.766785043172451
        ]
      }
    },
    {
      "type": "Feature",
      "properties": {
        "norad_id": 49809,
        "name": "GSAT0223 (GALILEO 27)",
        "group": "gnss",
        "lat": 45.714748281877554,
        "lon": 28.131836680938274,
        "alt_km": 23229.95621955721,
        "timestamp": "2025-12-10T04:57:29.861920+00:00",
        "meta_object_name": "GSAT0223 (GALILEO 27)",
        "meta_object_id": "2021-116A",
        "meta_epoch": "2025-12-09T19:43:21.531936",
        "meta_mean_motion": 1.7047574,
        "meta_eccentricity": 0.000464,
        "meta_inclination": 57.2199,
        "meta_ra_of_asc_node": 346.791,
        "meta_arg_of_pericenter": 251.5243,
        "meta_mean_anomaly": 290.6872,
        "meta_ephemeris_type": 0,
        "meta_classification_type": "U",
        "meta_norad_cat_id": 49809,
        "meta_element_set_no": 999,
        "meta_rev_at_epoch": 2495,
        "meta_bstar": 0,
        "meta_mean_motion_dot": -8.7e-07,
        "meta_mean_motion_ddot": 0,
        "tle_line1": "1 49809U 21116A   25343.82177699 -.00000087  00000+0  00000+0 0  9991",
        "tle_line2": "2 49809  57.2199 346.7910 0004640 251.5243 290.6872  1.70475740 24950"
      },
      "geometry": {
        "type": "Point",
        "coordinates": [
          28.131836680938274,
          45.714748281877554
        ]
      }
    },
    {
      "type": "Feature",
      "properties": {
        "norad_id": 49810,
        "name": "GSAT0224 (GALILEO 28)",
        "group": "gnss",
        "lat": 7.589546092024751,
        "lon": 161.85224747823403,
        "alt_km": 23219.991548266684,
        "timestamp": "2025-12-10T04:57:29.861932+00:00",
        "meta_object_name": "GSAT0224 (GALILEO 28)",
        "meta_object_id": "2021-116B",
        "meta_epoch": "2025-12-07T13:56:35.698272",
        "meta_mean_motion": 1.7047563,
        "meta_eccentricity": 0.00040182,
        "meta_inclination": 57.2213,
        "meta_ra_of_asc_node": 346.8506,
        "meta_arg_of_pericenter": 254.5241,
        "meta_mean_anomaly": 105.0474,
        "meta_ephemeris_type": 0,
        "meta_classification_type": "U",
        "meta_norad_cat_id": 49810,
        "meta_element_set_no": 999,
        "meta_rev_at_epoch": 2493,
        "meta_bstar": 0,
        "meta_mean_motion_dot": -8.4e-07,
        "meta_mean_motion_ddot": 0,
        "tle_line1": "1 49810U 21116B   25341.58096873 -.00000084  00000+0  00000+0 0  9995",
        "tle_line2": "2 49810  57.2213 346.8506 0004018 254.5241 105.0474  1.70475630 24934"
      },
      "geometry": {
        "type": "Point",
        "coordinates": [
          161.85224747823403,
          7.589546092024751
        ]
      }
    },
    {
      "type": "Feature",
      "properties": {
        "norad_id": 52984,
        "name": "COSMOS 2557 (706K)",
        "group": "gnss",
        "lat": 17.35255129253824,
        "lon": 132.52041029806074,
        "alt_km": 19143.590702885915,
        "timestamp": "2025-12-10T04:57:29.861943+00:00",
        "meta_object_name": "COSMOS 2557 (706K)",
        "meta_object_id": "2022-075A",
        "meta_epoch": "2025-12-07T04:21:00.419904",
        "meta_mean_motion": 2.13101754,
        "meta_eccentricity": 0.00137049,
        "meta_inclination": 64.4129,
        "meta_ra_of_asc_node": 321.247,
        "meta_arg_of_pericenter": 276.9,
        "meta_mean_anomaly": 82.939,
        "meta_ephemeris_type": 0,
        "meta_classification_type": "U",
        "meta_norad_cat_id": 52984,
        "meta_element_set_no": 999,
        "meta_rev_at_epoch": 2662,
        "meta_bstar": 0,
        "meta_mean_motion_dot": -5.2e-07,
        "meta_mean_motion_ddot": 0,
        "tle_line1": "1 52984U 22075A   25341.18125486 -.00000052  00000+0  00000+0 0  9990",
        "tle_line2": "2 52984  64.4129 321.2470 0013704 276.9000  82.9390  2.13101754 26625"
      },
      "geometry": {
        "type": "Point",
        "coordinates": [
          132.52041029806074,
          17.35255129253824
        ]
      }
    },
    {
      "type": "Feature",
      "properties": {
        "norad_id": 54031,
        "name": "COSMOS 2559 (707K)",
        "group": "gnss",
        "lat": -51.50447863657234,
        "lon": -75.87334678863243,
        "alt_km": 19144.759003290645,
        "timestamp": "2025-12-10T04:57:29.861954+00:00",
        "meta_object_name": "COSMOS 2559 (707K)",
        "meta_object_id": "2022-130A",
        "meta_epoch": "2025-12-09T08:19:17.567904",
        "meta_mean_motion": 2.13101276,
        "meta_eccentricity": 0.0011889,
        "meta_inclination": 64.3842,
        "meta_ra_of_asc_node": 321.2605,
        "meta_arg_of_pericenter": 192.5851,
        "meta_mean_anomaly": 167.383,
        "meta_ephemeris_type": 0,
        "meta_classification_type": "U",
        "meta_norad_cat_id": 54031,
        "meta_element_set_no": 999,
        "meta_rev_at_epoch": 2464,
        "meta_bstar": 0,
        "meta_mean_motion_dot": -5.2e-07,
        "meta_mean_motion_ddot": 0,
        "tle_line1": "1 54031U 22130A   25343.34673111 -.00000052  00000+0  00000+0 0  9990",
        "tle_line2": "2 54031  64.3842 321.2605 0011889 192.5851 167.3830  2.13101276 24646"
      },
      "geometry": {
        "type": "Point",
        "coordinates": [
          -75.87334678863243,
          -51.50447863657234
        ]
      }
    },
    {
      "type": "Feature",
      "properties": {
        "norad_id": 54377,
        "name": "COSMOS 2564 (761)",
        "group": "gnss",
        "lat": 50.87458203367041,
        "lon": -125.52643581095262,
        "alt_km": 19142.46438021476,
        "timestamp": "2025-12-10T04:57:29.861966+00:00",
        "meta_object_name": "COSMOS 2564 (761)",
        "meta_object_id": "2022-161A",
        "meta_epoch": "2025-12-09T04:34:58.856736",
        "meta_mean_motion": 2.13102019,
        "meta_eccentricity": 0.00086439,
        "meta_inclination": 64.7379,
        "meta_ra_of_asc_node": 199.0169,
        "meta_arg_of_pericenter": 205.3114,
        "meta_mean_anomaly": 154.7201,
        "meta_ephemeris_type": 0,
        "meta_classification_type": "U",
        "meta_norad_cat_id": 54377,
        "meta_element_set_no": 999,
        "meta_rev_at_epoch": 2358,
        "meta_bstar": 0,
        "meta_mean_motion_dot": 4.4e-07,
        "meta_mean_motion_ddot": 0,
        "tle_line1": "1 54377U 22161A   25343.19095899  .00000044  00000+0  00000+0 0  9991",
        "tle_line2": "2 54377  64.7379 199.0169 0008643 205.3114 154.7201  2.13102019 23583"
      },
      "geometry": {
        "type": "Point",
        "coordinates": [
          -125.52643581095262,
          50.87458203367041
        ]
      }
    }
  ]
}